IRIDIUM 171             
1 43929U 19002H   24247.59313426  .00000192  00000+0  61626-4 0  9997
2 43929  86.3919 266.0871 0002264  99.4667 260.6785 14.34219217295565
IRIDIUM 170             
1 43930U 19002J   24247.55872759  .00001320  00000+0  20538-3 0  9994
2 43930  86.6040 265.9072 0002537  90.4675 269.6833 14.72248495303384
IRIDIUM 167             
1 43931U 19002K   24247.58679360  .00000275  00000+0  90990-4 0  9999
2 43931  86.3909 265.8720 0002194  94.6097 265.5350 14.34218064295564
IRIDIUM 181             
1 56726U 23068S   24247.22686179  .00001392  00000+0  40525-3 0  9998
2 56726  86.8664 323.5738 0001944  99.9952 260.1469 14.43587180 68393
IRIDIUM 177             
1 56727U 23068T   24247.57539383  .00004095  00000+0  53479-3 0  9996
2 56727  86.1924 278.1375 0002021  96.4607 263.6845 14.80273640 69979
IRIDIUM 174             
1 56728U 23068U   24247.56996048  .00004301  00000+0  56190-3 0  9994
2 56728  86.1931 278.2500 0001804 103.8749 256.2673 14.80274123 69971
IRIDIUM 178             
1 56729U 23068V   24247.56462435  .00004644  00000+0  60733-3 0  9991
2 56729  86.5764 299.4441 0002141 100.8944 259.2518 14.80248960 69979
IRIDIUM 179             
1 56730U 23068W   24247.55935333  .00004647  00000+0  60813-3 0  9996
2 56730  86.6783 304.5709 0002107  88.6606 271.4857 14.80218333 69971
